0 FENGYUN 1C DEB
1 36729U 99025EBB 13280.95152125  .00000168  00000-0  12606-3 0  1665
2 36729 099.0248 321.5320 0047083 202.2426 157.6705 14.07141354248721
0 FENGYUN 1C DEB
1 36729U 99025EBB 13284.36458962  .00000170  00000-0  12683-3 0  1671
2 36729 099.0248 324.9384 0047075 192.6783 167.3211 14.07142847249209
0 FENGYUN 1C DEB
1 36729U 99025EBB 13286.92438890  .00000221  00000-0  15696-3 0  1688
2 36729 099.0243 327.4906 0046418 186.3530 173.7754 14.07146046249569
0 FENGYUN 1C DEB
1 36729U 99025EBB 13290.90627334  .00000235  00000-0  16542-3 0  1691
2 36729 099.0241 331.4638 0047061 174.7787 185.3897 14.07148604250127
